{
  "norad_id": 50176,
  "name": "STARLINK-3293",
  "history": [
    {
      "epoch": "2026-03-28T12:00:16.260480Z",
      "apogee_km": 540.6417799990431,
      "perigee_km": 538.8680325142777,
      "latitude_deg": 7.137612212544339e-06,
      "longitude_deg": 158.69130954997894,
      "height_km": 540.6876507563475,
      "semi_major_axis_km": 6917.89190625666,
      "eccentricity": 0.0001282,
      "inclination_deg": 53.2169,
      "raan_deg": 164.6788,
      "arg_perigee_deg": 92.3901,
      "mean_anomaly_deg": 267.7238,
      "mean_motion_rev_day": 15.08836232
    },
    {
      "epoch": "2026-03-29T05:29:30.775488Z",
      "apogee_km": 540.5907658151627,
      "perigee_km": 538.9180196763973,
      "latitude_deg": -6.0966805831391265e-05,
      "longitude_deg": -107.60830093917787,
      "height_km": 540.7471650634255,
      "semi_major_axis_km": 6917.89139274578,
      "eccentricity": 0.0001209,
      "inclination_deg": 53.2169,
      "raan_deg": 161.4079,
      "arg_perigee_deg": 96.6527,
      "mean_anomaly_deg": 263.4602,
      "mean_motion_rev_day": 15.088364
    },
    {
      "epoch": "2026-03-29T21:23:22.145856Z",
      "apogee_km": 540.6238940279818,
      "perigee_km": 538.8819693431833,
      "latitude_deg": 1.6063563879323654e-08,
      "longitude_deg": 10.301010189490267,
      "height_km": 540.7142287845564,
      "semi_major_axis_km": 6917.889931685582,
      "eccentricity": 0.0001259,
      "inclination_deg": 53.2167,
      "raan_deg": 158.4341,
      "arg_perigee_deg": 94.3145,
      "mean_anomaly_deg": 265.7991,
      "mean_motion_rev_day": 15.08836878
    },
    {
      "epoch": "2026-03-29T21:23:22.146720Z",
      "apogee_km": 540.6236173123843,
      "perigee_km": 538.8822460587808,
      "latitude_deg": 3.6994981228814158e-06,
      "longitude_deg": 10.301009318417712,
      "height_km": 540.7142079672255,
      "semi_major_axis_km": 6917.889931685582,
      "eccentricity": 0.00012586,
      "inclination_deg": 53.2167,
      "raan_deg": 158.4341,
      "arg_perigee_deg": 94.3145,
      "mean_anomaly_deg": 265.7991,
      "mean_motion_rev_day": 15.08836878
    },
    {
      "epoch": "2026-03-30T13:17:13.497216Z",
      "apogee_km": 540.6694742977888,
      "perigee_km": 538.8233679280311,
      "latitude_deg": 2.9479305065195446e-05,
      "longitude_deg": 128.210877657446,
      "height_km": 540.7096958793761,
      "semi_major_axis_km": 6917.88342111291,
      "eccentricity": 0.00013343,
      "inclination_deg": 53.2171,
      "raan_deg": 155.4608,
      "arg_perigee_deg": 94.1977,
      "mean_anomaly_deg": 265.9168,
      "mean_motion_rev_day": 15.08839008
    },
    {
      "epoch": "2026-03-31T21:04:56.440992Z",
      "apogee_km": 540.6893304269606,
      "perigee_km": 538.8007486301694,
      "latitude_deg": 5.796904178350347e-05,
      "longitude_deg": 4.027583172565665,
      "height_km": 540.5880465820027,
      "semi_major_axis_km": 6917.882039528565,
      "eccentricity": 0.0001365,
      "inclination_deg": 53.2165,
      "raan_deg": 149.5122,
      "arg_perigee_deg": 86.8073,
      "mean_anomaly_deg": 273.3076,
      "mean_motion_rev_day": 15.0883946
    },
    {
      "epoch": "2026-04-01T20:55:43.310784Z",
      "apogee_km": 540.7153006296712,
      "perigee_km": 538.7644593495143,
      "latitude_deg": 4.2059791295148104e-05,
      "longitude_deg": 0.8916468821392224,
      "height_km": 540.5864636827911,
      "semi_major_axis_km": 6917.876879989592,
      "eccentricity": 0.000141,
      "inclination_deg": 53.2165,
      "raan_deg": 145.0509,
      "arg_perigee_deg": 87.1232,
      "mean_anomaly_deg": 272.9922,
      "mean_motion_rev_day": 15.08841148
    },
    {
      "epoch": "2026-04-02T09:38:48.415200Z",
      "apogee_km": 540.6534745110239,
      "perigee_km": 538.8242497755555,
      "latitude_deg": 4.133350804669498e-05,
      "longitude_deg": 167.21946520860448,
      "height_km": 540.5995008350097,
      "semi_major_axis_km": 6917.875862143289,
      "eccentricity": 0.00013221,
      "inclination_deg": 53.2153,
      "raan_deg": 142.6723,
      "arg_perigee_deg": 87.8136,
      "mean_anomaly_deg": 272.3008,
      "mean_motion_rev_day": 15.08841481
    },
    {
      "epoch": "2026-04-03T12:40:21.277056Z",
      "apogee_km": 540.6683883412679,
      "perigee_km": 538.7803656142623,
      "latitude_deg": 5.2140223639118426e-05,
      "longitude_deg": 115.66753926122114,
      "height_km": 540.5823536347572,
      "semi_major_axis_km": 6917.861376977765,
      "eccentricity": 0.00013646,
      "inclination_deg": 53.2159,
      "raan_deg": 137.6172,
      "arg_perigee_deg": 87.7197,
      "mean_anomaly_deg": 272.3952,
      "mean_motion_rev_day": 15.0884622
    },
    {
      "epoch": "2026-04-04T09:20:23.120736Z",
      "apogee_km": 540.7673853498572,
      "perigee_km": 538.777932890087,
      "latitude_deg": 9.115061896833646e-06,
      "longitude_deg": 160.94495399019652,
      "height_km": 540.6777211892205,
      "semi_major_axis_km": 6917.909659119971,
      "eccentricity": 0.00014379,
      "inclination_deg": 53.2169,
      "raan_deg": 133.7511,
      "arg_perigee_deg": 90.5485,
      "mean_anomaly_deg": 269.5672,
      "mean_motion_rev_day": 15.08830424
    },
    {
      "epoch": "2026-04-05T07:35:46.972032Z",
      "apogee_km": 540.7155239738513,
      "perigee_km": 538.8020340013836,
      "latitude_deg": 3.336258210815911e-05,
      "longitude_deg": -177.9842566518872,
      "height_km": 540.6478755098581,
      "semi_major_axis_km": 6917.895778987618,
      "eccentricity": 0.0001383,
      "inclination_deg": 53.216,
      "raan_deg": 129.5853,
      "arg_perigee_deg": 89.6154,
      "mean_anomaly_deg": 270.4997,
      "mean_motion_rev_day": 15.08834965
    },
    {
      "epoch": "2026-04-05T18:43:29.011296Z",
      "apogee_km": 540.7021336093212,
      "perigee_km": 538.8176984893898,
      "latitude_deg": -1.2605018586572926e-05,
      "longitude_deg": 12.553419879895939,
      "height_km": 540.6370826938781,
      "semi_major_axis_km": 6917.896916049355,
      "eccentricity": 0.0001362,
      "inclination_deg": 53.2165,
      "raan_deg": 127.5052,
      "arg_perigee_deg": 88.8785,
      "mean_anomaly_deg": 271.2363,
      "mean_motion_rev_day": 15.08834593
    },
    {
      "epoch": "2026-04-06T05:51:11.095488Z",
      "apogee_km": 540.665048378738,
      "perigee_km": 538.8657019709544,
      "latitude_deg": -1.0926549511415304e-05,
      "longitude_deg": -156.90925604167847,
      "height_km": 540.6526927963209,
      "semi_major_axis_km": 6917.9023751748455,
      "eccentricity": 0.00013005,
      "inclination_deg": 53.2166,
      "raan_deg": 125.4249,
      "arg_perigee_deg": 89.466,
      "mean_anomaly_deg": 270.6481,
      "mean_motion_rev_day": 15.08832807
    },
    {
      "epoch": "2026-04-07T05:41:58.214976Z",
      "apogee_km": 540.6616734055524,
      "perigee_km": 538.8436520021951,
      "latitude_deg": 3.29348009015925e-05,
      "longitude_deg": -160.04549495711763,
      "height_km": 540.6159142954485,
      "semi_major_axis_km": 6917.889662703874,
      "eccentricity": 0.0001314,
      "inclination_deg": 53.2168,
      "raan_deg": 120.9643,
      "arg_perigee_deg": 87.9542,
      "mean_anomaly_deg": 272.1601,
      "mean_motion_rev_day": 15.08836966
    },
    {
      "epoch": "2026-04-07T18:25:03.255456Z",
      "apogee_km": 540.6599607933604,
      "perigee_km": 538.8336394701255,
      "latitude_deg": -1.2436911413949178e-05,
      "longitude_deg": 6.282255309614583,
      "height_km": 540.5936009026843,
      "semi_major_axis_km": 6917.883800131743,
      "eccentricity": 0.000132,
      "inclination_deg": 53.2168,
      "raan_deg": 118.5854,
      "arg_perigee_deg": 86.9302,
      "mean_anomaly_deg": 273.1841,
      "mean_motion_rev_day": 15.08838884
    }
  ]
}